TDRS 3                  
1 19548U 88091B   18099.20421564 -.00000303  00000-0  00000+0 0  9990
2 19548  14.4394   4.9724 0037601 318.8397 244.6843  1.00267195 95372
SKYNET 4C               
1 20776U 90079A   18097.40016680  .00000121  00000-0  00000-0 0  9991
2 20776  13.9280  13.2096 0003593   9.4648 350.5085  1.00278264100916
TDRS 5                  
1 21639U 91054B   18098.79676969  .00000082  00000-0  00000+0 0  9994
2 21639  14.5364  18.3357 0025298 346.2282 311.6880  1.00267073 97713
TDRS 6                  
1 22314U 93003B   18099.42302765 -.00000295  00000-0  00000+0 0  9999
2 22314  14.0937  21.3185 0007441 331.6379 311.0907  1.00269857 92387
ASTRA 1D                
1 23331U 94070A   18099.37386091 -.00000272  00000-0  00000+0 0  9997
2 23331   7.9987  47.2076 0003862 328.8797 243.0595  1.00273973 86175
BRASILSAT B2            
1 23536U 95016A   18099.38017757 -.00000285  00000-0  00000+0 0  9990
2 23536   7.6247  49.1280 0002569 342.5908 234.7063  1.00275025 84328
AMSC 1                  
1 23553U 95019A   18098.84331258 -.00000121  00000-0  00000+0 0  9996
2 23553  10.4359  37.3393 0005945   3.4888 356.4857  1.00273303 84171
TDRS 7                  
1 23613U 95035B   18099.50786478 -.00000201  00000-0  00000+0 0  9992
2 23613  15.0572  12.0186 0033277   4.2677  88.9128  1.00268504 83163
INMARSAT 3-F1           
1 23839U 96020A   18098.99702407 -.00000001  00000-0  00000+0 0  9997
2 23839   4.5435  66.1328 0006106 312.0540 242.4145  1.00270817 80626
ASTRA 1F                
1 23842U 96021A   18099.06892907  .00000127  00000-0  00000+0 0  9994
2 23842   0.0655  59.2462 0003689 319.3611 247.7539  1.00271929 80337
MSAT M1                 
1 23846U 96022A   18097.88337376 -.00000092  00000-0  00000+0 0  9993
2 23846   8.1836  46.6837 0006245 332.8108  27.1397  1.00271316 80432
INMARSAT 3-F2           
1 24307U 96053A   18099.30045907 -.00000134  00000-0  00000+0 0  9992
2 24307   3.2301  76.2226 0007535 291.6638 282.2651  1.00271585 79031
AMC-1 (GE-1)            
1 24315U 96054A   18099.04866962  .00000057  00000-0  00000+0 0  9998
2 24315   2.1889  83.5149 0002818 307.0506  53.2970  1.00272287 79039
AFRICASAT-2 (MEASAT-2)  
1 24653U 96063B   18098.62852855 -.00000234  00000-0  00000-0 0  9991
2 24653   7.9243  47.6157 0007328 219.5579 303.9332  1.00272856 78464
INMARSAT 3-F3           
1 24674U 96070A   18099.42366159  .00000028  00000-0  00000+0 0  9997
2 24674   4.0123  70.3297 0005637 308.1598 149.7120  1.00272518 77978
AMC-2 (GE-2)            
1 24713U 97002A   18099.42202247 -.00000220  00000-0  00000+0 0  9999
2 24713   4.8826  64.4116 0004953 316.3970 243.8889  1.00273237 28332
INTELSAT 26 (IS-26)     
1 24732U 97007A   18098.93660406 -.00000018  00000-0  00000+0 0  9990
2 24732   7.9046  47.9648 0005691 357.1416 194.9830  1.00273613 77283
GALAXY 25 (G-25)        
1 24812U 97026A   18098.71165785 -.00000175  00000-0  00000+0 0  9990
2 24812   0.1120  92.6746 0003485 283.6173 343.7140  1.00272824 76367
INTELSAT 5 (IS-5)       
1 24916U 97046A   18098.21225224 -.00000153  00000-0  00000-0 0  9994
2 24916   4.1215  69.6394 0003096 314.2852  45.8032  1.00271903 75622
AMC-3 (GE-3)            
1 24936U 97050A   18099.22238242 -.00000271  00000-0  00000+0 0  9997
2 24936   1.0105  90.9536 0002700 294.8451 179.6669  1.00272858 75455
NSS-5                   
1 24957U 97053A   18099.21715986  .00000099  00000-0  00000+0 0  9994
2 24957   4.4079  67.8253 0003806 320.6065 297.6282  1.00270530 75245
ASTRA 1G                
1 25071U 97076A   18099.13508597  .00000098  00000-0  00000+0 0  9995
2 25071   2.9285  77.2167 0003169 306.6878 272.9329  1.00273680 74541
BRASILSAT B3            
1 25152U 98006A   18098.81405333 -.00000293  00000-0  00000+0 0  9995
2 25152   4.5852  66.8224 0002792 307.0219  53.0424  1.00271692 73939
INMARSAT 3-F5           
1 25153U 98006B   18099.39883010 -.00000297  00000-0  00000+0 0  9996
2 25153   3.1669  73.4462 0005244 314.3982 259.3463  1.00272002 73897
NSS-806                 
1 25239U 98014A   18099.15670988 -.00000291  00000-0  00000+0 0  9996
2 25239   0.0732  49.7413 0004799 338.3118 178.2080  1.00271279 73666
CHINASAT 5A (ZX 5A)     
1 25354U 98033A   18098.92948497 -.00000364  00000-0  00000+0 0  9993
2 25354   1.8691  85.4225 0003825 244.9266 326.9483  1.00271708 77244
THOR III                
1 25358U 98035A   18098.62474899 -.00000052  00000-0  00000+0 0  9990
2 25358   5.9241  57.4185 0002702 321.4275  38.5815  1.00273052 72718
INTELSAT 805 (IS-805)   
1 25371U 98037A   18098.68379226 -.00000043  00000-0  00000+0 0  9991
2 25371   0.6453  93.3341 0003393 294.6620 224.0453  1.00272242 72568
ASTRA 2A                
1 25462U 98050A   18099.46577270 -.00000371  00000-0  00000+0 0  9997
2 25462   0.0384 225.1378 0002406 165.9591  87.7376  1.00270542 71751
JCSAT-4A                
1 25630U 99006A   18099.48102267 -.00000212  00000-0  00000+0 0  9992
2 25630   2.9045  78.5137 0005319 293.8790 148.4351  1.00271909 70018
SKYNET 4E               
1 25639U 99009B   18098.09212701 -.00000038  00000-0  00000+0 0  9991
2 25639  10.3742  26.3839 0003915 353.9621 207.8775  1.00271105 70013
ASIASAT 3S              
1 25657U 99013A   18099.52359218 -.00000245  00000-0  00000+0 0  9990
2 25657   3.1132  76.8452 0003806 299.1663 156.2527  1.00273623 69830
NIMIQ 1                 
1 25740U 99027A   18099.42202247 -.00000211  00000-0  00000+0 0  9999
2 25740   0.0276 277.7391 0004859 113.6795 231.6025  1.00272915 69213
ASTRA 1H                
1 25785U 99033A   18098.90103819 -.00000285  00000-0  00000-0 0  9994
2 25785   4.3918  67.9799 0002832 298.5054  87.8877  1.00274823 21420
ABS-7                   
1 25894U 99046A   18098.83646872 -.00000375  00000-0  00000-0 0  9992
2 25894   0.0316 110.4884 0003288 304.9487 198.8438  1.00272554 67136
ABS-6                   
1 25924U 99053A   18098.01326101 -.00000133  00000-0  00000-0 0  9996
2 25924   0.0490  81.3897 0003128 325.6957 312.9344  1.00271999 67887
TELSTAR 12 (ORION 2)    
1 25949U 99059A   18098.49424330 -.00000074  00000-0  00000+0 0  9997
2 25949   1.5620  87.4933 0003021 295.5142 242.4211  1.00272745 67538
AMC-4 (GE-4)            
1 25954U 99060A   18098.82747052  .00000075  00000-0  00000-0 0  9992
2 25954   0.0708  89.6805 0002362 293.9015 336.4236  1.00273862 13729
GALAXY 11 (G-11)        
1 26038U 99071A   18099.13670876  .00000125  00000-0  00000+0 0  9997
2 26038   0.1194  86.7370 0000381 309.2660 255.4347  1.00272313 67108
SUPERBIRD-B2            
1 26095U 00012A   18099.52187355 -.00000104  00000-0  00000+0 0  9993
2 26095   1.0353  91.7156 0003342 296.3513 159.4800  1.00272087 66440
ASIASTAR                
1 26107U 00016A   18098.93686899 -.00000344  00000-0  00000-0 0  9999
2 26107   2.2880  81.1005 0004428 295.7494 262.5930  1.00272861 65938
EUTELSAT 80A            
1 26369U 00028A   18099.15109837 -.00000113  00000-0  00000+0 0  9992
2 26369   1.6363  85.0031 0006824 296.3358 217.6961  1.00272283 65480
TDRS 8                  
1 26388U 00034A   18099.35121310 -.00000236  00000-0  00000+0 0  9998
2 26388   7.9790  53.3944 0010132 287.0547  72.8360  1.00272154 65187
ECHOSTAR 6              
1 26402U 00038A   18099.44077116 -.00000157  00000-0  00000+0 0  9995
2 26402   4.7422  65.5883 0002906 315.3116 239.1929  1.00271946 64923
INTELSAT 9 (IS-9)       
1 26451U 00043A   18099.27342861 -.00000225  00000-0  00000+0 0  9994
2 26451   4.1099  69.8505 0003208 326.4679 230.0816  1.00273657 64850
BRASILSAT B4            
1 26469U 00046A   18098.94020472 -.00000181  00000-0  00000+0 0  9991
2 26469   2.2722  83.3171 0003139 305.3211  55.0047  1.00272883 64640
NILESAT 102             
1 26470U 00046B   18099.09212580 -.00000070  00000-0  00000+0 0  9990
2 26470   2.2997  82.2696 0004806 292.8243 208.3269  1.00273122 64649
ASTRA 2B                
1 26494U 00054A   18098.83048590 -.00000164  00000-0  00000+0 0  9998
2 26494   2.8185  77.8888 0006988 317.7532  80.7529  1.00272092 64246
AMC-7 (GE-7)            
1 26495U 00054B   18098.82770248  .00000076  00000-0  00000-0 0  9992
2 26495   0.0821  87.6392 0001907 232.3693  39.9724  1.00271765 64237
NSS-11 (AAP-1)          
1 26554U 00059A   18099.54649983  .00000013  00000-0  00000+0 0  9994
2 26554   0.0439  66.8502 0002513 328.7855 174.8321  1.00272437 64187
N-SAT-110 (JCSAT-110)   
1 26559U 00060A   18099.50749867 -.00000363  00000-0  00000+0 0  9998
2 26559   0.0830 102.4728 0000783 309.3142  78.6614  1.00270606 64121
AMC-6 (GE-6)            
1 26580U 00067A   18099.09421153 -.00000228  00000-0  00000+0 0  9998
2 26580   0.0484  78.8525 0002703 323.6908 105.6578  1.00272269 63995
INTELSAT 12 (IS-12)     
1 26590U 00068A   18098.91160594  .00000125  00000-0  00000-0 0  9995
2 26590   1.1179  91.0077 0003488 313.5079 165.7615  1.00269660 21721
INTELSAT 1R (IS-1R)     
1 26608U 00072A   18098.84915854 -.00000149  00000-0  00000+0 0  9995
2 26608   0.9334  92.3252 0002410 272.0614 295.4486  1.00271581 63658
ANIK F1                 
1 26624U 00076A   18097.75378080 -.00000087  00000-0  00000-0 0  9992
2 26624   0.0144 186.1245 0001961 240.6667 293.2228  1.00272636 13151
ASTRA 2D                
1 26638U 00081A   18098.47880591  .00000037  00000-0  00000-0 0  9992
2 26638   4.2197  68.6675 0001878 307.4195  52.6710  1.00274654 22915
AMC-8 (GE-8)            
1 26639U 00081B   18098.75743719  .00000092  00000-0  00000+0 0  9994
2 26639   0.0464  75.9921 0002056 248.7250   5.8943  1.00272717 63270
SKYNET 4F               
1 26695U 01005B   18099.15184976 -.00000254  00000-0  00000+0 0  9993
2 26695   9.2221  34.5937 0002562 343.4914 199.9578  1.00274601 62883
EUTELSAT 33C            
1 26719U 01011A   18099.36090998  .00000144  00000-0  00000+0 0  9997
2 26719   0.1777  78.1311 0006442 317.9167 324.5089  1.00271868 62596
